ONEWEB-0340             
1 49206U 21083W   25158.15256797  .00000029  00000+0  41353-4 0  9998
2 49206  87.9156  49.9818 0001880  76.1692 283.9650 13.18686849181834
ONEWEB-0341             
1 49207U 21083X   25158.08459209  .00000027  00000+0  35075-4 0  9996
2 49207  87.9157  50.0057 0002461  80.8267 279.3143 13.18686309181848
ONEWEB-0342             
1 49208U 21083Y   25157.97597196  .00000045  00000+0  78786-4 0  9998
2 49208  87.9249 349.1693 0001833  94.0247 266.1096 13.20771957188559
ONEWEB-0343             
1 49209U 21083Z   25157.92809410  .00000045  00000+0  81678-4 0  9993
2 49209  87.9160  50.0238 0002445  88.2457 271.8955 13.18688492181876
ONEWEB-0344             
1 49210U 21083AA  25158.09755417  .00000269  00000+0  70135-3 0  9994
2 49210  87.8984  34.8159 0002241  78.5272 281.6109 13.13471048182956
ONEWEB-0345             
1 49211U 21083AB  25158.08908458  .00000114  00000+0  27587-3 0  9991
2 49211  87.8979  34.7708 0002311  78.1614 281.9774 13.13472359182962
ONEWEB-0346             
1 49212U 21083AC  25157.93757312 -.00000282  00000+0 -74869-3 0  9999
2 49212  87.9153  50.0440 0001879  61.9949 298.1373 13.18690447180521
ONEWEB-0348             
1 49213U 21083AD  25157.96650765  .00000053  00000+0  97587-4 0  9994
2 49213  87.9261 349.1771 0002156  73.3404 286.7966 13.20772126188586
